CCSDS_OMM_VERS = 2.0
CREATION_DATE  = 
ORIGINATOR     = 

OBJECT_NAME    = SOYUZ-MS 28
OBJECT_ID      = 2025-275A
CENTER_NAME    = EARTH
REF_FRAME      = TEME
TIME_SYSTEM    = UTC
MEAN_ELEMENT_THEORY = SGP/SGP4

EPOCH          = 2025-12-26T05:05:45.767328
MEAN_MOTION    = 15.49833819
ECCENTRICITY   = .00032367
INCLINATION    = 51.6319
RA_OF_ASC_NODE = 75.7553
ARG_OF_PERICENTER = 303.1667
MEAN_ANOMALY   = 56.9011

EPHEMERIS_TYPE = 0
CLASSIFICATION_TYPE = U
NORAD_CAT_ID   = 66664
ELEMENT_SET_NO = 999
REV_AT_EPOCH   = 128
BSTAR          = .25187037E-3
MEAN_MOTION_DOT = .13862E-3
MEAN_MOTION_DDOT = 0

CCSDS_OMM_VERS = 2.0
CREATION_DATE  = 
ORIGINATOR     = 

OBJECT_NAME    = 1998-067XS
OBJECT_ID      = 1998-067XS
CENTER_NAME    = EARTH
REF_FRAME      = TEME
TIME_SYSTEM    = UTC
MEAN_ELEMENT_THEORY = SGP/SGP4

EPOCH          = 2025-12-26T06:15:17.316576
MEAN_MOTION    = 15.51300220
ECCENTRICITY   = .00026696
INCLINATION    = 51.6322
RA_OF_ASC_NODE = 75.3293
ARG_OF_PERICENTER = 271.0578
MEAN_ANOMALY   = 89.0106

EPHEMERIS_TYPE = 0
CLASSIFICATION_TYPE = U
NORAD_CAT_ID   = 66906
ELEMENT_SET_NO = 999
REV_AT_EPOCH   = 371
BSTAR          = .43777364E-3
MEAN_MOTION_DOT = .25789E-3
MEAN_MOTION_DDOT = 0

CCSDS_OMM_VERS = 2.0
CREATION_DATE  = 
ORIGINATOR     = 

OBJECT_NAME    = 1998-067XT
OBJECT_ID      = 1998-067XT
CENTER_NAME    = EARTH
REF_FRAME      = TEME
TIME_SYSTEM    = UTC
MEAN_ELEMENT_THEORY = SGP/SGP4

EPOCH          = 2025-12-24T10:39:56.166048
MEAN_MOTION    = 15.52879993
ECCENTRICITY   = .00038856
INCLINATION    = 51.6313
RA_OF_ASC_NODE = 84.2012
ARG_OF_PERICENTER = 298.2919
MEAN_ANOMALY   = 61.7678

EPHEMERIS_TYPE = 0
CLASSIFICATION_TYPE = U
NORAD_CAT_ID   = 66907
ELEMENT_SET_NO = 999
REV_AT_EPOCH   = 343
BSTAR          = .10726177E-2
MEAN_MOTION_DOT = .67981E-3
MEAN_MOTION_DDOT = 0

CCSDS_OMM_VERS = 2.0
CREATION_DATE  = 
ORIGINATOR     = 

OBJECT_NAME    = 1998-067XU
OBJECT_ID      = 1998-067XU
CENTER_NAME    = EARTH
REF_FRAME      = TEME
TIME_SYSTEM    = UTC
MEAN_ELEMENT_THEORY = SGP/SGP4

EPOCH          = 2025-12-26T05:52:50.075328
MEAN_MOTION    = 15.53197536
ECCENTRICITY   = .00038191
INCLINATION    = 51.6316
RA_OF_ASC_NODE = 75.2260
ARG_OF_PERICENTER = 307.4311
MEAN_ANOMALY   = 52.6331

EPHEMERIS_TYPE = 0
CLASSIFICATION_TYPE = U
NORAD_CAT_ID   = 66908
ELEMENT_SET_NO = 999
REV_AT_EPOCH   = 371
BSTAR          = .91736042E-3
MEAN_MOTION_DOT = .58677E-3
MEAN_MOTION_DDOT = 0

CCSDS_OMM_VERS = 2.0
CREATION_DATE  = 
ORIGINATOR     = 

OBJECT_NAME    = SILVERSAT
OBJECT_ID      = 1998-067XV
CENTER_NAME    = EARTH
REF_FRAME      = TEME
TIME_SYSTEM    = UTC
MEAN_ELEMENT_THEORY = SGP/SGP4

EPOCH          = 2025-12-26T05:50:15.051264
MEAN_MOTION    = 15.53472060
ECCENTRICITY   = .00038112
INCLINATION    = 51.6312
RA_OF_ASC_NODE = 75.2140
ARG_OF_PERICENTER = 312.9233
MEAN_ANOMALY   = 47.1437

EPHEMERIS_TYPE = 0
CLASSIFICATION_TYPE = U
NORAD_CAT_ID   = 66909
ELEMENT_SET_NO = 999
REV_AT_EPOCH   = 371
BSTAR          = .10732725E-2
MEAN_MOTION_DOT = .69517E-3
MEAN_MOTION_DDOT = 0

CCSDS_OMM_VERS = 2.0
CREATION_DATE  = 
ORIGINATOR     = 

OBJECT_NAME    = 1998-067XW
OBJECT_ID      = 1998-067XW
CENTER_NAME    = EARTH
REF_FRAME      = TEME
TIME_SYSTEM    = UTC
MEAN_ELEMENT_THEORY = SGP/SGP4

EPOCH          = 2025-12-26T05:47:57.385824
MEAN_MOTION    = 15.53373617
ECCENTRICITY   = .00037621
INCLINATION    = 51.6294
RA_OF_ASC_NODE = 75.2017
ARG_OF_PERICENTER = 284.0151
MEAN_ANOMALY   = 76.0421

EPHEMERIS_TYPE = 0
CLASSIFICATION_TYPE = U
NORAD_CAT_ID   = 66910
ELEMENT_SET_NO = 999
REV_AT_EPOCH   = 371
BSTAR          = .96718956E-3
MEAN_MOTION_DOT = .62317E-3
MEAN_MOTION_DDOT = 0

CCSDS_OMM_VERS = 2.0
CREATION_DATE  = 
ORIGINATOR     = 

OBJECT_NAME    = 1998-067XX
OBJECT_ID      = 1998-067XX
CENTER_NAME    = EARTH
REF_FRAME      = TEME
TIME_SYSTEM    = UTC
MEAN_ELEMENT_THEORY = SGP/SGP4

EPOCH          = 2025-12-26T05:41:53.748960
MEAN_MOTION    = 15.53922498
ECCENTRICITY   = .00035122
INCLINATION    = 51.6300
RA_OF_ASC_NODE = 75.1744
ARG_OF_PERICENTER = 292.0313
MEAN_ANOMALY   = 68.0304

EPHEMERIS_TYPE = 0
CLASSIFICATION_TYPE = U
NORAD_CAT_ID   = 66911
ELEMENT_SET_NO = 999
REV_AT_EPOCH   = 370
BSTAR          = .11417936E-2
MEAN_MOTION_DOT = .75265E-3
MEAN_MOTION_DDOT = 0

CCSDS_OMM_VERS = 2.0
CREATION_DATE  = 
ORIGINATOR     = 

OBJECT_NAME    = 1998-067XY
OBJECT_ID      = 1998-067XY
CENTER_NAME    = EARTH
REF_FRAME      = TEME
TIME_SYSTEM    = UTC
MEAN_ELEMENT_THEORY = SGP/SGP4

EPOCH          = 2025-12-26T06:01:58.635840
MEAN_MOTION    = 15.52460987
ECCENTRICITY   = .00038345
INCLINATION    = 51.6312
RA_OF_ASC_NODE = 75.2679
ARG_OF_PERICENTER = 300.6282
MEAN_ANOMALY   = 59.4330

EPHEMERIS_TYPE = 0
CLASSIFICATION_TYPE = U
NORAD_CAT_ID   = 66912
ELEMENT_SET_NO = 999
REV_AT_EPOCH   = 370
BSTAR          = .77856856E-3
MEAN_MOTION_DOT = .4835E-3
MEAN_MOTION_DDOT = 0

