SOYUZ-MS 28             
1 66664U 25275A   25360.21233527  .00013862  00000+0  25187-3 0  9995
2 66664  51.6319  75.7553 0003236 303.1667  56.9011 15.49833819  1281
1998-067XS              
1 66906U 98067XS  25360.26061709  .00025789  00000+0  43777-3 0  9995
2 66906  51.6322  75.3293 0002669 271.0578  89.0106 15.51300220  3714
1998-067XT              
1 66907U 98067XT  25358.44440007  .00067981  00000+0  10726-2 0  9992
2 66907  51.6313  84.2012 0003885 298.2919  61.7678 15.52879993  3433
1998-067XU              
1 66908U 98067XU  25360.24502402  .00058677  00000+0  91736-3 0  9995
2 66908  51.6316  75.2260 0003819 307.4311  52.6331 15.53197536  3711
SILVERSAT               
1 66909U 98067XV  25360.24322976  .00069517  00000+0  10733-2 0  9994
2 66909  51.6312  75.2140 0003811 312.9233  47.1437 15.53472060  3715
1998-067XW              
1 66910U 98067XW  25360.24163641  .00062317  00000+0  96719-3 0  9998
2 66910  51.6294  75.2017 0003762 284.0151  76.0421 15.53373617  3714
1998-067XX              
1 66911U 98067XX  25360.23742765  .00075265  00000+0  11418-2 0  9996
2 66911  51.6300  75.1744 0003512 292.0313  68.0304 15.53922498  3708
1998-067XY              
1 66912U 98067XY  25360.25137310  .00048350  00000+0  77857-3 0  9998
2 66912  51.6312  75.2679 0003834 300.6282  59.4330 15.52460987  3700
